0 ECHOSTAR 14
1 36499U 10010A   13281.22174600 -.00000011  00000-0  00000+0 0   162
2 36499 000.0023 093.0433 0003639 144.8403 100.0650 01.00275853 13057
0 ECHOSTAR 14
1 36499U 10010A   13281.59832493 -.00000014  00000-0  00000+0 0   177
2 36499 000.0010 344.3133 0004434 219.7187 269.8866 01.00290422 13060
0 ECHOSTAR 14
1 36499U 10010A   13283.02248895 -.00000016  00000-0  00000+0 0   187
2 36499 000.0038 125.4307 0003331 077.9811 064.5905 01.00272226 13071
0 ECHOSTAR 14
1 36499U 10010A   13283.38587140 -.00000016  00000-0  00000+0 0   196
2 36499 000.0232 227.0372 0002990 323.8032 208.3487 01.00267306 13083
0 ECHOSTAR 14
1 36499U 10010A   13285.40457937 -.00000023  00000-0  00000+0 0   201
2 36499 000.0084 084.6651 0003392 122.3340 200.9027 01.00272925 13100
0 ECHOSTAR 14
1 36499U 10010A   13286.43839705 -.00000025  00000-0  00000+0 0   215
2 36499 000.0095 205.4803 0003245 028.1935 187.4029 01.00272825 13115
0 ECHOSTAR 14
1 36499U 10010A   13288.35915638 -.00000025  00000-0  00000+0 0   229
2 36499 000.0171 216.2287 0004449 336.6811 201.5637 01.00272408 13135
0 ECHOSTAR 14
1 36499U 10010A   13289.39859225 -.00000024  00000-0  00000+0 0   233
2 36499 000.0246 222.5153 0002729 351.4893 195.6743 01.00271202 13147
0 ECHOSTAR 14
1 36499U 10010A   13290.28752377  .00000000  00000-0  10000-3 0   242
2 36499 000.0139 068.1946 0003154 098.3812 204.0915 01.00271448 13141
0 ECHOSTAR 14
1 36499U 10010A   13290.28843669  .00000000  00000-0  10000-3 0   258
2 36499 000.0136 069.4736 0003022 107.4145 194.1050 01.00271391 13140
0 ECHOSTAR 14
1 36499U 10010A   13290.40731365 -.00000022  00000-0  00000+0 0   240
2 36499 000.0093 245.3072 0002601 310.5927 217.9251 01.00272605 13154
0 ECHOSTAR 14
1 36499U 10010A   13292.41711269 -.00000018  00000-0  00000+0 0   250
2 36499 000.0053 245.2802 0002601 310.6598 223.3930 01.00272011 13173
0 ECHOSTAR 14
1 36499U 10010A   13293.51225161 -.00000016  00000-0  00000+0 0   262
2 36499 000.0273 237.1172 0002699 336.2793 241.2589 01.00272266 13187
0 ECHOSTAR 14
1 36499U 10010A   13295.01312094 -.00000013  00000-0  00000+0 0   279
2 36499 000.0248 237.2816 0002725 334.1887 064.9797 01.00272420 13190
